STARLINK-31742          
1 59499U 24071R   26068.13772591  .00000213  00000+0  17281-4 0  9995
2 59499  43.0036 342.6484 0000846 259.5431 100.5326 15.27533339108122
FLOCK 4G-1              
1 62666U 25009BK  26068.75951132  .00013534  00000+0  50654-3 0  9995
2 62666  97.4059 151.3158 0003180 323.1401  36.9619 15.27421081 63725
